[
    {
        "Altitude(m)": 570587.9502576896,
        "Argument of Periapsis(deg)": 0.013245982221427002,
        "Eccentricity": 0.0,
        "Inclination(deg)": 53.0,
        "Latitude(deg)": -49.93572146913932,
        "Longitude(deg)": 111.43717964991774,
        "Mean Anomaly(deg)": -107.08951426484485,
        "RAAN(deg)": 329.980286737056,
        "Satellite Name": "Starlink Shell 1 1466",
        "Satellite Number": 1466,
        "Semi-Major Axis(m)": 6931778.249405717,
        "Time(s)": 380
    },
    {
        "Altitude(m)": 570676.5658432891,
        "Argument of Periapsis(deg)": 0.013594560700938237,
        "Eccentricity": 0.0,
        "Inclination(deg)": 53.0,
        "Latitude(deg)": -50.15878229867013,
        "Longitude(deg)": 112.30243098716534,
        "Mean Anomaly(deg)": -106.46268306128819,
        "RAAN(deg)": 329.97976796697856,
        "Satellite Name": "Starlink Shell 1 1466",
        "Satellite Number": 1466,
        "Semi-Major Axis(m)": 6931778.249405717,
        "Time(s)": 390
    },
    {
        "Altitude(m)": 570762.1663188619,
        "Argument of Periapsis(deg)": 0.013943139180449475,
        "Eccentricity": 0.0,
        "Inclination(deg)": 53.0,
        "Latitude(deg)": -50.374694751699245,
        "Longitude(deg)": 113.17600461624755,
        "Mean Anomaly(deg)": -105.83585185773131,
        "RAAN(deg)": 329.97924919690104,
        "Satellite Name": "Starlink Shell 1 1466",
        "Satellite Number": 1466,
        "Semi-Major Axis(m)": 6931778.249405717,
        "Time(s)": 400
    },
    {
        "Altitude(m)": 570844.7176229532,
        "Argument of Periapsis(deg)": 0.014291717659960712,
        "Eccentricity": 0.0,
        "Inclination(deg)": 53.0,
        "Latitude(deg)": -50.58333996335602,
        "Longitude(deg)": 114.0577633778351,
        "Mean Anomaly(deg)": -105.2090206541747,
        "RAAN(deg)": 329.97873042682363,
        "Satellite Name": "Starlink Shell 1 1466",
        "Satellite Number": 1466,
        "Semi-Major Axis(m)": 6931778.249405717,
        "Time(s)": 410
    },
    {
        "Altitude(m)": 570924.1868964715,
        "Argument of Periapsis(deg)": 0.014640296139471948,
        "Eccentricity": 0.0,
        "Inclination(deg)": 53.0,
        "Latitude(deg)": -50.784600607714815,
        "Longitude(deg)": 114.94755406013302,
        "Mean Anomaly(deg)": -104.5821894506179,
        "RAAN(deg)": 329.9782116567461,
        "Satellite Name": "Starlink Shell 1 1466",
        "Satellite Number": 1466,
        "Semi-Major Axis(m)": 6931778.249405717,
        "Time(s)": 420
    },
    {
        "Altitude(m)": 571000.5424969789,
        "Argument of Periapsis(deg)": 0.014988874618983185,
        "Eccentricity": 0.0,
        "Inclination(deg)": 53.0,
        "Latitude(deg)": -50.978361157080364,
        "Longitude(deg)": 115.84520765193906,
        "Mean Anomaly(deg)": -103.95535824706123,
        "RAAN(deg)": 329.97769288666865,
        "Satellite Name": "Starlink Shell 1 1466",
        "Satellite Number": 1466,
        "Semi-Major Axis(m)": 6931778.249405717,
        "Time(s)": 430
    },
    {
        "Altitude(m)": 571073.7540124351,
        "Argument of Periapsis(deg)": 0.015337453098494424,
        "Eccentricity": 0.0,
        "Inclination(deg)": 53.0,
        "Latitude(deg)": -51.16450814792402,
        "Longitude(deg)": 116.7505396517328,
        "Mean Anomaly(deg)": -103.32852704350451,
        "RAAN(deg)": 329.97717411659124,
        "Satellite Name": "Starlink Shell 1 1466",
        "Satellite Number": 1466,
        "Semi-Major Axis(m)": 6931778.249405717,
        "Time(s)": 440
    },
    {
        "Altitude(m)": 571143.7922744083,
        "Argument of Periapsis(deg)": 0.01568603157800566,
        "Eccentricity": 0.0,
        "Inclination(deg)": 53.0,
        "Latitude(deg)": -51.3429304524343,
        "Longitude(deg)": 117.66334892478169,
        "Mean Anomaly(deg)": -102.70169583994783,
        "RAAN(deg)": 329.9766553465137,
        "Satellite Name": "Starlink Shell 1 1466",
        "Satellite Number": 1466,
        "Semi-Major Axis(m)": 6931778.249405717,
        "Time(s)": 450
    },
    {
        "Altitude(m)": 571210.62937075,
        "Argument of Periapsis(deg)": 0.0160346100575169,
        "Eccentricity": 0.0,
        "Inclination(deg)": 53.0,
        "Latitude(deg)": -51.51351955453587,
        "Longitude(deg)": 118.58341813865063,
        "Mean Anomaly(deg)": -102.07486463639117,
        "RAAN(deg)": 329.9761365764362,
        "Satellite Name": "Starlink Shell 1 1466",
        "Satellite Number": 1466,
        "Semi-Major Axis(m)": 6931778.249405717,
        "Time(s)": 460
    },
    {
        "Altitude(m)": 571274.2386576887,
        "Argument of Periapsis(deg)": 0.016383188537028134,
        "Eccentricity": 0.0,
        "Inclination(deg)": 53.0,
        "Latitude(deg)": -51.676169829116745,
        "Longitude(deg)": 119.51051426858669,
        "Mean Anomaly(deg)": -101.44803343283432,
        "RAAN(deg)": 329.9756178063588,
        "Satellite Name": "Starlink Shell 1 1466",
        "Satellite Number": 1466,
        "Semi-Major Axis(m)": 6931778.249405717,
        "Time(s)": 470
    },
    {
        "Altitude(m)": 571334.5947714233,
        "Argument of Periapsis(deg)": 0.01673176701653937,
        "Eccentricity": 0.0,
        "Inclination(deg)": 53.0,
        "Latitude(deg)": -51.830778823099855,
        "Longitude(deg)": 120.44438766388103,
        "Mean Anomaly(deg)": -100.82120222927765,
        "RAAN(deg)": 329.9750990362813,
        "Satellite Name": "Starlink Shell 1 1466",
        "Satellite Number": 1466,
        "Semi-Major Axis(m)": 6931778.249405717,
        "Time(s)": 480
    },
    {
        "Altitude(m)": 571391.6736390921,
        "Argument of Periapsis(deg)": 0.017080345496050607,
        "Eccentricity": 0.0,
        "Inclination(deg)": 53.0,
        "Latitude(deg)": -51.977247536900606,
        "Longitude(deg)": 121.38477270446475,
        "Mean Anomaly(deg)": -100.19437102572094,
        "RAAN(deg)": 329.9745802662038,
        "Satellite Name": "Starlink Shell 1 1466",
        "Satellite Number": 1466,
        "Semi-Major Axis(m)": 6931778.249405717,
        "Time(s)": 490
    },
    {
        "Altitude(m)": 571445.4524892273,
        "Argument of Periapsis(deg)": 0.017428923975561842,
        "Eccentricity": 0.0,
        "Inclination(deg)": 53.0,
        "Latitude(deg)": -52.11548070472153,
        "Longitude(deg)": 122.33138853784484,
        "Mean Anomaly(deg)": -99.56753982216415,
        "RAAN(deg)": 329.97406149612635,
        "Satellite Name": "Starlink Shell 1 1466",
        "Satellite Number": 1466,
        "Semi-Major Axis(m)": 6931778.249405717,
        "Time(s)": 500
    },
    {
        "Altitude(m)": 571495.909861642,
        "Argument of Periapsis(deg)": 0.01777750245507308,
        "Eccentricity": 0.0,
        "Inclination(deg)": 53.0,
        "Latitude(deg)": -52.245387072059344,
        "Longitude(deg)": 123.28393838588435,
        "Mean Anomaly(deg)": -98.94070861860747,
        "RAAN(deg)": 329.9735427260489,
        "Satellite Name": "Starlink Shell 1 1466",
        "Satellite Number": 1466,
        "Semi-Major Axis(m)": 6931778.249405717,
        "Time(s)": 510
    },
    {
        "Altitude(m)": 571543.0256166968,
        "Argument of Periapsis(deg)": 0.018126080934584315,
        "Eccentricity": 0.0,
        "Inclination(deg)": 53.0,
        "Latitude(deg)": -52.366879668750855,
        "Longitude(deg)": 124.24211044894055,
        "Mean Anomaly(deg)": -98.31387741505083,
        "RAAN(deg)": 329.97302395597137,
        "Satellite Name": "Starlink Shell 1 1466",
        "Satellite Number": 1466,
        "Semi-Major Axis(m)": 6931778.249405717,
        "Time(s)": 520
    },
    {
        "Altitude(m)": 571586.780944041,
        "Argument of Periapsis(deg)": 0.018474659414095554,
        "Eccentricity": 0.0,
        "Inclination(deg)": 53.0,
        "Latitude(deg)": -52.47987607576061,
        "Longitude(deg)": 125.20557889489493,
        "Mean Anomaly(deg)": -97.68704621149408,
        "RAAN(deg)": 329.97250518589397,
        "Satellite Name": "Starlink Shell 1 1466",
        "Satellite Number": 1466,
        "Semi-Major Axis(m)": 6931778.249405717,
        "Time(s)": 530
    },
    {
        "Altitude(m)": 571627.1583707702,
        "Argument of Periapsis(deg)": 0.018823237893606792,
        "Eccentricity": 0.0,
        "Inclination(deg)": 53.0,
        "Latitude(deg)": -52.58429868411125,
        "Longitude(deg)": 126.17400342172114,
        "Mean Anomaly(deg)": -97.06021500793736,
        "RAAN(deg)": 329.97198641581645,
        "Satellite Name": "Starlink Shell 1 1466",
        "Satellite Number": 1466,
        "Semi-Major Axis(m)": 6931778.249405717,
        "Time(s)": 540
    },
    {
        "Altitude(m)": 571664.1417689938,
        "Argument of Periapsis(deg)": 0.019171816373118027,
        "Eccentricity": 0.0,
        "Inclination(deg)": 53.0,
        "Latitude(deg)": -52.680074943955425,
        "Longitude(deg)": 127.1470304167087,
        "Mean Anomaly(deg)": -96.43338380438061,
        "RAAN(deg)": 329.971467645739,
        "Satellite Name": "Starlink Shell 1 1466",
        "Satellite Number": 1466,
        "Semi-Major Axis(m)": 6931778.249405717,
        "Time(s)": 550
    },
    {
        "Altitude(m)": 571697.7163627915,
        "Argument of Periapsis(deg)": 0.019520394852629266,
        "Eccentricity": 0.0,
        "Inclination(deg)": 53.0,
        "Latitude(deg)": -52.76713760220383,
        "Longitude(deg)": 128.12429419934546,
        "Mean Anomaly(deg)": -95.80655260082399,
        "RAAN(deg)": 329.9709488756615,
        "Satellite Name": "Starlink Shell 1 1466",
        "Satellite Number": 1466,
        "Semi-Major Axis(m)": 6931778.249405717,
        "Time(s)": 560
    }
]